[{"OBJECT_NAME":"REIMEI (INDEX)","OBJECT_ID":"2005-031B","EPOCH":"2026-03-09T21:15:47.083968","MEAN_MOTION":15.09838737,"ECCENTRICITY":0.00209792,"INCLINATION":97.9988,"RA_OF_ASC_NODE":188.389,"ARG_OF_PERICENTER":89.5619,"MEAN_ANOMALY":270.8013,"EPHEMERIS_TYPE":0,"CLASSIFICATION_TYPE":"U","NORAD_CAT_ID":28810,"ELEMENT_SET_NO":999,"REV_AT_EPOCH":11600,"BSTAR":0.00050498736,"MEAN_MOTION_DOT":8.144e-5,"MEAN_MOTION_DDOT":0},{"OBJECT_NAME":"STARLINK-3542","OBJECT_ID":"2022-022A","EPOCH":"2026-03-09T04:33:59.245920","MEAN_MOTION":15.0886006,"ECCENTRICITY":0.00012096,"INCLINATION":53.2191,"RA_OF_ASC_NODE":21.3629,"ARG_OF_PERICENTER":96.3422,"MEAN_ANOMALY":263.7708,"EPHEMERIS_TYPE":0,"CLASSIFICATION_TYPE":"U","NORAD_CAT_ID":51852,"ELEMENT_SET_NO":999,"REV_AT_EPOCH":22168,"BSTAR":0.00023272751,"MEAN_MOTION_DOT":3.42e-5,"MEAN_MOTION_DDOT":0}]
